ONEWEB-0588             
1 55153U 23004P   25208.50806354  .00000048  00000+0  89647-4 0  9995
2 55153  87.9111  39.9949 0001315  85.1650 274.9633 13.18684998126905
ONEWEB-0598             
1 55154U 23004Q   25208.59379124 -.00000096  00000+0 -30563-3 0  9992
2 55154  87.8809  85.7810 0001905  59.6173 300.5143 13.11414603123351
ONEWEB-0599             
1 55155U 23004R   25208.62559265  .00000058  00000+0  11697-3 0  9996
2 55155  87.9041  70.4705 0001913  77.6204 282.5141 13.17649410124742
ONEWEB-0614             
1 55156U 23004S   25208.89389115  .00000217  00000+0  57705-3 0  9998
2 55156  87.8809  85.7307 0001517  87.5671 272.5631 13.11414056123358
ONEWEB-0616             
1 55157U 23004T   25208.89558299  .00000067  00000+0  13808-3 0  9999
2 55157  87.9040  70.4074 0002836  81.0455 279.0998 13.17649616124990
ONEWEB-0617             
1 55158U 23004U   25208.88202665  .00000542  00000+0  14929-2 0  9994
2 55158  87.8805  85.7122 0001406  79.6216 280.5070 13.11415821123363
ONEWEB-0618             
1 55159U 23004V   25208.74425520  .00001055  00000+0  18167-3 0  9996
2 55159  86.9114 307.5542 0016137  51.0939 309.1711 14.67558747133516
ONEWEB-0619             
1 55160U 23004W   25208.85170140  .00000046  00000+0  85617-4 0  9999
2 55160  87.9035  70.3929 0001948  97.7754 262.3599 13.17648225124880
